NORAD_CAT_ID,OBJECT_NAME,OBJECT_TYPE,EPOCH,MEAN_MOTION,ECCENTRICITY,INCLINATION,RA_OF_ASC_NODE,ARG_OF_PERICENTER,MEAN_ANOMALY,BSTAR,MEAN_MOTION_DOT,MEAN_MOTION_DDOT,TLE_LINE0,TLE_LINE1,TLE_LINE2,SEMIMAJOR_AXIS,PERIOD,APOGEE,PERIGEE,DECAYED
51121.0,STARLINK-3399,PAYLOAD,2023-04-15 08:37:28,15.0877093,0.0001661,53.2174,4.6518,88.0611,272.0572,0.0027602,0.00043831,0.0,0 STARLINK-3399,1 51121U 22005T   23105.35936000  .00043831  00000-0  27602-2 0  9994,2 51121  53.2174   4.6518 0001661  88.0611 272.0572 15.08770930 68959,6918.092,95.442,541.106,538.807,0.0
51121.0,STARLINK-3399,PAYLOAD,2023-04-15 21:20:32,15.08828475,8.8e-05,53.2179,2.2751,130.9251,229.1817,0.00047977,7.354e-05,0.0,0 STARLINK-3399,1 51121U 22005T   23105.88926354  .00007354  00000-0  47977-3 0  9991,2 51121  53.2179   2.2751 0000880 130.9251 229.1817 15.08828475 70143,6917.916,95.438,540.389,539.172,0.0
51121.0,STARLINK-3399,PAYLOAD,2023-04-16 02:06:41,15.0885485,0.0001476,53.2167,1.3805,104.9994,255.1161,0.0013071,0.00020584,0.0,0 STARLINK-3399,1 51121U 22005T   23106.08798083  .00020584  00000-0  13071-2 0  9997,2 51121  53.2167   1.3805 0001476 104.9994 255.1161 15.08854850 69063,6917.835,95.437,540.721,538.679,0.0
51121.0,STARLINK-3399,PAYLOAD,2023-04-16 16:25:09,15.08854817,0.0001802,53.2159,358.7074,90.8914,269.2284,0.0010317,0.00016176,0.0,0 STARLINK-3399,1 51121U 22005T   23106.68414252  .00016176  00000-0  10317-2 0  9998,2 51121  53.2159 358.7074 0001802  90.8914 269.2284 15.08854817 70268,6917.835,95.437,540.947,538.454,0.0
51121.0,STARLINK-3399,PAYLOAD,2023-04-16 21:11:19,15.08849427,0.0001414,53.2161,357.8156,108.1533,251.9613,0.00063522,9.839e-05,0.0,0 STARLINK-3399,1 51121U 22005T   23106.88286324  .00009839  00000-0  63522-3 0  9992,2 51121  53.2161 357.8156 0001414 108.1533 251.9613 15.08849427 69185,6917.852,95.437,540.695,538.738,0.0
51121.0,STARLINK-3399,PAYLOAD,2023-04-17 01:57:28,15.08849764,0.0001477,53.2172,356.9177,107.1413,252.9741,0.00057175,8.826e-05,0.0,0 STARLINK-3399,1 51121U 22005T   23107.08158180  .00008826  00000-0  57175-3 0  9995,2 51121  53.2172 356.9177 0001477 107.1413 252.9741 15.08849764 69216,6917.851,95.437,540.737,538.694,0.0
51121.0,STARLINK-3399,PAYLOAD,2023-04-17 16:15:57,15.08840592,0.0001613,53.2176,354.2426,94.4464,265.6713,0.00029485,4.408e-05,0.0,0 STARLINK-3399,1 51121U 22005T   23107.67774598  .00004408  00000-0  29485-3 0  9992,2 51121  53.2176 354.2426 0001613  94.4464 265.6713 15.08840592 70418,6917.879,95.438,540.859,538.628,0.0
51121.0,STARLINK-3399,PAYLOAD,2023-04-17 21:02:06,15.08845834,0.0001502,53.2169,353.3514,98.3047,261.8116,0.00043248,6.603e-05,0.0,0 STARLINK-3399,1 51121U 22005T   23107.87646404  .00006603  00000-0  43248-3 0  9990,2 51121  53.2169 353.3514 0001502  98.3047 261.8116 15.08845834 69333,6917.863,95.437,540.767,538.688,0.0
51121.0,STARLINK-3399,PAYLOAD,2023-04-18 00:12:52,15.08850488,0.0001368,53.2167,352.7561,101.1754,258.9392,0.00061368,9.495e-05,0.0,0 STARLINK-3399,1 51121U 22005T   23108.00894296  .00009495  00000-0  61368-3 0  9995,2 51121  53.2167 352.7561 0001368 101.1754 258.9392 15.08850488 69350,6917.848,95.437,540.66,538.767,0.0
51121.0,STARLINK-3399,PAYLOAD,2023-04-18 14:31:21,15.08835495,0.0001173,53.2181,350.078,151.8472,208.2583,0.00010456,1.376e-05,0.0,0 STARLINK-3399,1 51121U 22005T   23108.60510508  .00001376  00000-0  10456-3 0  9994,2 51121  53.2181 350.0780 0001173 151.8472 208.2583 15.08835495 70558,6917.894,95.438,540.571,538.948,0.0
51121.0,STARLINK-3399,PAYLOAD,2023-04-18 22:28:16,15.08844424,0.0001164,53.217,348.5939,97.093,263.0195,0.00048315,7.411e-05,0.0,0 STARLINK-3399,1 51121U 22005T   23108.93630659  .00007411  00000-0  48315-3 0  9991,2 51121  53.2170 348.5939 0001164  97.0930 263.0195 15.08844424 69495,6917.867,95.437,540.537,538.927,0.0
51121.0,STARLINK-3399,PAYLOAD,2023-04-20 01:29:50,15.08851597,0.0001133,53.2162,343.5384,84.6338,275.4784,0.00046356,7.1e-05,0.0,0 STARLINK-3399,1 51121U 22005T   23110.06238686  .00007100  00000-0  46356-3 0  9990,2 51121  53.2162 343.5384 0001133  84.6338 275.4784 15.08851597 70778,6917.845,95.437,540.494,538.926,0.0
51121.0,STARLINK-3399,PAYLOAD,2023-04-20 22:09:51,15.08841192,0.0001137,53.2159,339.6697,90.6335,269.4787,0.00014864,2.079e-05,0.0,0 STARLINK-3399,1 51121U 22005T   23110.92350937  .00002079  00000-0  14864-3 0  9998,2 51121  53.2159 339.6697 0001137  90.6335 269.4787 15.08841192 69791,6917.877,95.437,540.528,538.955,0.0
51121.0,STARLINK-3399,PAYLOAD,2023-04-21 07:42:09,15.08844879,0.000109,53.2167,337.8904,93.4442,266.6675,0.0001602,2.263e-05,0.0,0 STARLINK-3399,1 51121U 22005T   23111.32094754  .00002263  00000-0  16020-3 0  9996,2 51121  53.2167 337.8904 0001090  93.4442 266.6675 15.08844879 69856,6917.865,95.437,540.485,538.976,0.0
51121.0,STARLINK-3399,PAYLOAD,2023-04-21 22:00:38,15.0884574,0.000104,53.2176,335.2142,94.476,265.6351,7.7496e-05,9.46e-06,0.0,0 STARLINK-3399,1 51121U 22005T   23111.91710669  .00000946  00000-0  77496-4 0  9992,2 51121  53.2176 335.2142 0001040  94.4760 265.6351 15.08845740 69949,6917.863,95.437,540.447,539.008,0.0
51121.0,STARLINK-3399,PAYLOAD,2023-04-22 01:11:24,15.088485,0.0001083,53.2161,334.6179,91.2277,268.8839,0.00010699,1.416e-05,0.0,0 STARLINK-3399,1 51121U 22005T   23112.04958539  .00001416  00000-0  10699-3 0  9991,2 51121  53.2161 334.6179 0001083  91.2277 268.8839 15.08848500 71071,6917.854,95.437,540.469,538.97,0.0
51121.0,STARLINK-3399,PAYLOAD,2023-04-22 13:54:29,15.08839468,7.41e-05,53.2161,332.238,77.5952,282.5123,0.0001031,1.354e-05,0.0,0 STARLINK-3399,1 51121U 22005T   23112.57950790  .00001354  00000-0  10310-3 0  9991,2 51121  53.2161 332.2380 0000741  77.5952 282.5123 15.08839468 71157,6917.882,95.438,540.26,539.234,0.0
51121.0,STARLINK-3399,PAYLOAD,2023-04-22 15:29:52,15.08840101,8.51e-05,53.2162,331.9404,81.1505,278.9584,-7.1182e-06,-4.01e-06,0.0,0 STARLINK-3399,1 51121U 22005T   23112.64574821 -.00000401  00000-0 -71182-5 0  9996,2 51121  53.2162 331.9404 0000851  81.1505 278.9584 15.08840101 70052,6917.88,95.438,540.334,539.156,0.0
51121.0,STARLINK-3399,PAYLOAD,2023-04-23 13:45:16,15.08837229,9.44e-05,53.2178,327.779,98.5315,261.5784,3.3324e-05,2.43e-06,0.0,0 STARLINK-3399,1 51121U 22005T   23113.57310954  .00000243  00000-0  33324-4 0  9991,2 51121  53.2178 327.7790 0000944  98.5315 261.5784 15.08837229 70196,6917.889,95.438,540.407,539.101,0.0
51121.0,STARLINK-3399,PAYLOAD,2023-04-23 15:20:39,15.08836339,9.71e-05,53.2179,327.4815,97.6832,262.4271,1.4454e-05,-5.8e-07,0.0,0 STARLINK-3399,1 51121U 22005T   23113.63935025 -.00000058  00000-0  14454-4 0  9998,2 51121  53.2179 327.4815 0000971  97.6832 262.4271 15.08836339 71313,6917.892,95.438,540.428,539.085,0.0
51121.0,STARLINK-3399,PAYLOAD,2023-04-23 21:42:11,15.08851304,9.78e-05,53.218,326.2912,99.5403,260.57,0.00016711,2.374e-05,0.0,0 STARLINK-3399,1 51121U 22005T   23113.90430450  .00002374  00000-0  16711-3 0  9999,2 51121  53.2180 326.2912 0000978  99.5403 260.5700 15.08851304 71351,6917.846,95.437,540.387,539.034,0.0
51121.0,STARLINK-3399,PAYLOAD,2023-04-24 21:32:57,15.0886821,0.0001007,53.2172,321.83,71.5518,288.5583,0.00035888,5.433e-05,0.0,0 STARLINK-3399,1 51121U 22005T   23114.89788902  .00005433  00000-0  35888-3 0  9991,2 51121  53.2172 321.8300 0001007  71.5518 288.5583 15.08868210 71505,6917.794,95.436,540.356,538.963,0.0
51121.0,STARLINK-3399,PAYLOAD,2023-04-25 13:26:51,15.08816484,9.33e-05,53.2157,318.8558,111.7983,248.3108,-0.0004304,-7.126e-05,0.0,0 STARLINK-3399,1 51121U 22005T   23115.56031418 -.00007126  00000-0 -43040-3 0  9991,2 51121  53.2157 318.8558 0000933 111.7983 248.3108 15.08816484 70499,6917.952,95.439,540.463,539.172,0.0
51121.0,STARLINK-3399,PAYLOAD,2023-04-25 21:23:48,15.08790707,7.51e-05,53.2156,317.3686,77.8517,282.2559,-0.00084902,-0.00013756,0.0,0 STARLINK-3399,1 51121U 22005T   23115.89152812 -.00013756  00000-0 -84902-3 0  9997,2 51121  53.2156 317.3686 0000751  77.8517 282.2559 15.08790707 71652,6918.031,95.441,540.416,539.377,0.0
51121.0,STARLINK-3399,PAYLOAD,2023-04-26 08:31:30,15.08812498,6.8e-05,53.217,315.2875,115.7397,244.3665,-1.2461e-05,-4.86e-06,0.0,0 STARLINK-3399,1 51121U 22005T   23116.35520951 -.00000486  00000-0 -12461-4 0  9990,2 51121  53.2170 315.2875 0000680 115.7397 244.3665 15.08812498 70618,6917.964,95.439,540.3,539.359,0.0
51121.0,STARLINK-3399,PAYLOAD,2023-04-26 19:39:12,15.08839852,7.22e-05,53.2172,313.2083,80.6115,279.4959,0.00093736,0.00014662,0.0,0 STARLINK-3399,1 51121U 22005T   23116.81889181  .00014662  00000-0  93736-3 0  9996,2 51121  53.2172 313.2083 0000722  80.6115 279.4959 15.08839852 70689,6917.881,95.438,540.245,539.246,0.0
51121.0,STARLINK-3399,PAYLOAD,2023-04-27 13:08:26,15.08848735,4.14e-05,53.2172,309.9366,123.5371,236.5661,0.00082787,0.00012915,0.0,0 STARLINK-3399,1 51121U 22005T   23117.54752737  .00012915  00000-0  82787-3 0  9996,2 51121  53.2172 309.9366 0000414 123.5371 236.5661 15.08848735 70790,6917.854,95.437,540.005,539.432,0.0
51121.0,STARLINK-3399,PAYLOAD,2023-04-27 16:19:12,15.08854005,1.63e-05,53.2162,309.3402,135.15,224.9505,0.00079343,0.00012367,0.0,0 STARLINK-3399,1 51121U 22005T   23117.68000370  .00012367  00000-0  79343-3 0  9995,2 51121  53.2162 309.3402 0000163 135.1500 224.9505 15.08854005 71929,6917.838,95.437,539.815,539.59,0.0
51121.0,STARLINK-3399,PAYLOAD,2023-04-28 19:20:44,15.08852729,0.0001045,53.2134,304.2867,93.6945,266.4167,4.0718e-05,3.6e-06,0.0,0 STARLINK-3399,1 51121U 22005T   23118.80607342  .00000360  00000-0  40718-4 0  9997,2 51121  53.2134 304.2867 0001045  93.6945 266.4167 15.08852729 72093,6917.841,95.437,540.429,538.984,0.0
51121.0,STARLINK-3399,PAYLOAD,2023-04-29 04:53:03,15.08845674,5.48e-05,53.2151,302.5021,96.3632,263.7422,-7.642e-05,-1.504e-05,0.0,0 STARLINK-3399,1 51121U 22005T   23119.20351476 -.00001504  00000-0 -76420-4 0  9998,2 51121  53.2151 302.5021 0000548  96.3632 263.7422 15.08845674 72157,6917.863,95.437,540.107,539.349,0.0
